OBJECT_NAME,OBJECT_ID,EPOCH,MEAN_MOTION,ECCENTRICITY,INCLINATION,RA_OF_ASC_NODE,ARG_OF_PERICENTER,MEAN_ANOMALY,EPHEMERIS_TYPE,CLASSIFICATION_TYPE,NORAD_CAT_ID,ELEMENT_SET_NO,REV_AT_EPOCH,BSTAR,MEAN_MOTION_DOT,MEAN_MOTION_DDOT
STARLINK-34024,2025-102K,2026-07-12T06:45:49.289472,14.98345904,.00031322,70.0017,160.3605,263.8384,96.2419,0,U,64031,999,6455,.31203251E-3,.3634E-4,0
STARLINK-34019,2025-102L,2026-07-12T07:39:52.788672,14.98341845,.00030896,70.0005,160.0884,270.1404,89.9401,0,U,64032,999,6463,.22238626E-3,.2562E-4,0
STARLINK-33860,2025-102M,2026-07-12T20:46:58.512000,14.98322303,.0002602,69.9961,158.7884,270.3690,89.7171,0,U,64033,999,6471,-.19071E-3,-.2367E-4,0
STARLINK-33946,2025-102N,2026-07-12T20:00:01.999008,14.98289134,.000298,70.0004,158.8980,266.6318,254.3545,0,U,64034,999,575,.41072E-2,.49207E-3,0
STARLINK-34046,2025-102P,2026-07-12T07:16:04.956960,14.98342576,.0003848,69.9992,160.3148,262.2603,97.8119,0,U,64035,999,6439,.16185863E-3,.1839E-4,0
STARLINK-34085,2025-102Q,2026-07-11T08:32:10.838400,14.98332776,.00035521,70.0001,162.7417,265.7049,94.3704,0,U,64036,999,6447,.16581101E-3,.1886E-4,0
STARLINK-34008,2025-102R,2026-07-12T08:16:09.431904,14.98343390,.00038742,69.9999,160.1719,262.2745,97.7974,0,U,64037,999,6463,.21841113E-3,.2515E-4,0
STARLINK-34079,2025-102S,2026-07-12T20:22:55.394400,14.98345891,.0003857,69.9997,158.7254,262.7718,97.3003,0,U,64038,999,6480,.37849E-3,.4428E-4,0
STARLINK-34089,2025-102T,2026-07-12T07:22:05.466144,14.98331844,.00039554,69.9996,160.4443,261.7412,98.3299,0,U,64039,999,6461,-.11627956E-3,-.148E-4,0
STARLINK-34117,2025-102U,2026-07-11T08:38:11.306112,14.98343281,.00034702,70.0000,162.7567,262.9284,97.1480,0,U,64040,999,6441,.21133776E-3,.243E-4,0
STARLINK-34111,2025-102V,2026-07-12T08:22:10.272864,14.98341991,.00036284,70.0008,160.1871,266.0809,93.9935,0,U,64041,999,6440,.21404438E-3,.2463E-4,0
STARLINK-34049,2025-102W,2026-07-12T07:15:52.707168,14.98328064,.00037903,70.0001,160.4336,265.1652,94.9074,0,U,64042,999,6461,.25601857E-3,.2963E-4,0
STARLINK-34096,2025-102X,2026-07-11T08:25:55.393248,14.98345364,.00043408,70.0010,162.7298,254.1530,105.9151,0,U,64043,999,6436,.1595866E-3,.1812E-4,0
STARLINK-34081,2025-102Y,2026-07-11T08:37:58.176768,14.98337640,.00033705,69.9997,162.7613,263.4827,96.5948,0,U,64044,999,6441,.2157102E-3,.2482E-4,0
STARLINK-34033,2025-102Z,2026-07-12T20:52:58.932192,14.98335128,.0003053,70.0003,158.7990,269.6558,90.4251,0,U,64045,999,6463,.10311E-3,.1138E-4,0
STARLINK-33952,2025-102AA,2026-07-12T20:40:57.737568,14.98333758,.0003065,70.0024,158.7698,264.2537,95.8272,0,U,64046,999,6470,.16955E-3,.1931E-4,0
STARLINK-33961,2025-102AB,2026-07-12T21:05:00.938112,14.98327651,.0003425,70.0003,158.8298,263.2428,96.8342,0,U,64047,999,6458,.80288E-4,.865E-5,0
STARLINK-11741 [DTC],2025-107A,2026-07-12T15:22:53.128416,15.70968644,.0002241,42.9998,65.6062,247.9153,112.1477,0,U,64064,999,6694,.17473E-2,.231358E-2,0
STARLINK-11709 [DTC],2025-107B,2026-07-12T16:23:51.891072,15.70934206,.0001196,42.9997,65.0531,255.4611,104.6124,0,U,64065,999,6695,.12077E-2,.158116E-2,0
STARLINK-11737 [DTC],2025-107C,2026-07-12T00:45:20.062944,15.70847799,.00017895,43.0004,68.7589,275.2059,84.8604,0,U,64066,999,6685,.9108518E-3,.118141E-2,0
STARLINK-11726 [DTC],2025-107D,2026-07-12T18:48:44.626176,15.70648647,.0002016,43.0010,64.0738,267.8018,92.2619,0,U,64067,999,6697,.34196E-2,.459801E-2,0
STARLINK-11700 [DTC],2025-107E,2026-07-12T16:40:27.627744,15.70913456,.0002389,43.0018,65.1445,241.8796,118.1831,0,U,64068,999,6695,.91383E-3,.118872E-2,0
STARLINK-11649 [DTC],2025-107F,2026-07-12T18:33:39.053088,15.70852710,.0005314,43.0004,64.8807,292.5302,67.5003,0,U,64069,999,6696,.11494E-2,.149884E-2,0
STARLINK-11713 [DTC],2025-107G,2026-07-12T01:00:37.961856,15.70943490,.00017247,42.9971,68.8445,314.9030,45.1697,0,U,64070,999,6685,.16057912E-2,.211854E-2,0
STARLINK-11719 [DTC],2025-107H,2026-07-12T16:39:08.997696,15.70950925,.0002662,43.0005,65.1344,247.6054,112.4531,0,U,64071,999,6695,.13807E-2,.181497E-2,0
STARLINK-11733 [DTC],2025-107J,2026-07-11T23:06:07.602336,15.70855796,.0002401,43.0027,69.0939,286.2021,73.8582,0,U,64072,999,6684,.35404E-3,.45261E-3,0
STARLINK-11729 [DTC],2025-107K,2026-07-12T01:31:12.322848,15.70840389,.00016833,43.0007,69.0111,260.3579,99.7099,0,U,64073,999,6685,.59222955E-3,.76244E-3,0
STARLINK-11730 [DTC],2025-107L,2026-07-12T01:15:55.560960,15.70842738,.00013486,42.9981,68.9286,353.4568,6.6282,0,U,64074,999,6685,.96901082E-3,.125801E-2,0
STARLINK-11723 [DTC],2025-107M,2026-07-12T20:00:01.999008,15.70921789,.000134,43.0005,63.9967,263.4641,286.6612,0,U,64075,999,592,-.14427E-2,-.18219E-2,0
STARLINK-11715 [DTC],2025-107N,2026-07-12T20:12:40.732704,15.70825767,.0002042,43.0009,63.6417,270.2697,89.7937,0,U,64076,999,6698,.81616E-3,.105555E-2,0
STARLINK-34201,2025-107P,2026-07-12T10:10:22.788768,15.27592696,.00015247,42.9985,217.4005,274.7528,85.3149,0,U,64077,999,6410,.36055147E-3,.9676E-4,0
STARLINK-34190,2025-107Q,2026-07-12T12:41:41.255808,15.27599870,.0001266,42.9987,216.4681,250.1857,109.8858,0,U,64078,999,6521,.58667E-3,.15926E-3,0
STARLINK-34168,2025-107R,2026-07-12T02:50:50.578944,15.27584339,.00009044,42.9993,218.5436,248.0140,112.0616,0,U,64079,999,6515,.34508269E-3,.9247E-4,0
STARLINK-34098,2025-107S,2026-07-12T03:01:57.030528,15.27578732,.00013341,43.0015,218.6037,268.9986,91.0713,0,U,64080,999,6515,.154315E-3,.3986E-4,0
STARLINK-34180,2025-107T,2026-07-12T03:33:24.123168,15.27590219,.00012595,42.9979,218.7683,274.2013,85.8695,0,U,64081,999,6515,.21432472E-3,.5642E-4,0
STARLINK-34171,2025-107U,2026-07-12T02:45:17.436960,15.27586998,.00007124,42.9964,218.5080,244.4472,115.6306,0,U,64082,999,6515,.22724659E-3,.5998E-4,0
STARLINK-34126,2025-107V,2026-07-12T10:04:52.041792,15.27567952,.00011737,42.9975,217.3684,245.1313,114.9417,0,U,64083,999,6410,.36385767E-3,.976E-4,0
STARLINK-34157,2025-107W,2026-07-12T01:24:05.614848,15.27584854,.00011618,43.0004,218.9503,269.8885,90.1834,0,U,64084,999,6512,.51603644E-3,.13967E-3,0
STARLINK-34140,2025-107X,2026-07-12T11:18:36.914976,15.27591722,.00023181,43.0013,216.8941,289.0543,71.0057,0,U,64085,999,6518,.36379091E-3,.9766E-4,0
STARLINK-34132,2025-107Y,2026-07-12T09:59:18.471264,15.27563529,.00015291,42.9973,217.3384,270.7415,89.3262,0,U,64086,999,6516,.34914971E-3,.9353E-4,0
STARLINK-34178,2025-110A,2026-07-11T08:09:59.887008,15.31707696,.00010605,53.1620,172.4384,94.0365,266.0758,0,U,64096,999,6481,.36663926E-3,.11032E-3,0
STARLINK-34174,2025-110B,2026-07-12T09:31:48.784224,15.34403581,.00014803,53.1551,165.5362,123.8912,236.2231,0,U,64097,999,6500,.44315413E-3,.14627E-3,0
STARLINK-34146,2025-110C,2026-07-12T07:21:39.132288,15.34384304,.00009614,53.1583,165.6838,154.3952,205.7098,0,U,64098,999,6498,.40952807E-3,.13478E-3,0
STARLINK-34074,2025-110D,2026-07-12T08:14:30.655104,15.30195895,.00014585,53.1567,168.0357,85.9495,274.1673,0,U,64099,999,6496,.46181787E-3,.13341E-3,0
STARLINK-34082,2025-110E,2026-07-12T09:45:31.161888,15.30207533,.00010884,53.1644,167.7245,307.1681,52.9221,0,U,64100,999,6497,.43196701E-3,.12459E-3,0
STARLINK-34072,2025-110F,2026-07-12T07:45:59.455584,15.31719929,.00010033,53.1568,167.2077,97.6834,262.4281,0,U,64101,999,6497,.60488049E-3,.18463E-3,0
STARLINK-34104,2025-110G,2026-07-12T08:19:12.637056,15.34408044,.00018329,53.1546,165.9340,210.0740,150.0158,0,U,64102,999,6499,.57986659E-3,.19271E-3,0
STARLINK-34179,2025-110H,2026-07-12T09:53:06.858816,15.30207108,.0000951,53.1576,167.7507,91.2876,268.8234,0,U,64103,999,6497,.65622122E-3,.19131E-3,0
STARLINK-34176,2025-110J,2026-07-12T09:44:00.232800,15.30206559,.00022413,53.1522,167.7106,89.8035,270.3222,0,U,64104,999,6497,.43658212E-3,.12596E-3,0
STARLINK-33949,2025-110K,2026-07-12T09:27:09.231840,15.31718518,.00011324,53.1580,166.9323,87.1944,272.9187,0,U,64105,999,6498,.53194396E-3,.16187E-3,0
STARLINK-33970,2025-110L,2026-07-12T08:28:19.118784,15.34406930,.00022221,53.1686,165.9689,40.3231,319.7936,0,U,64106,999,6499,.45114391E-3,.149E-3,0
STARLINK-33912,2025-110M,2026-07-12T07:39:44.801856,15.31712130,.00007629,53.1576,167.1761,120.9512,239.1564,0,U,64107,999,6497,.44121111E-3,.13356E-3,0
STARLINK-34156,2025-110N,2026-07-12T10:40:29.913888,15.31712567,.00011299,53.1588,166.5349,89.2246,270.8885,0,U,64108,999,6499,.49593079E-3,.15061E-3,0
STARLINK-34124,2025-110P,2026-07-12T07:25:49.586880,15.31715281,.0001173,53.1594,167.1144,87.3064,272.8071,0,U,64109,999,6497,.28467047E-3,.8483E-4,0
STARLINK-34145,2025-110Q,2026-07-12T07:30:46.138464,15.34352722,.00016019,53.1575,165.7202,97.5665,262.5520,0,U,64110,999,6499,.18623465E-2,.62981E-3,0
STARLINK-34148,2025-110R,2026-07-12T08:46:21.297792,15.31693594,.00015928,53.1554,166.7536,99.1821,260.9360,0,U,64111,999,6498,.14846579E-3,.4244E-4,0
STARLINK-34136,2025-110S,2026-07-12T07:19:06.404736,15.31712600,.00010836,53.1546,167.0847,74.3762,285.7359,0,U,64112,999,6497,.31693483E-3,.9486E-4,0
STARLINK-33839,2025-110T,2026-07-12T10:40:56.520768,15.31724630,.00005783,53.1606,166.5371,93.9598,266.1470,0,U,64113,999,6499,.53438312E-3,.16266E-3,0
STARLINK-34064,2025-110U,2026-07-12T00:10:06.705984,15.31711699,.00011985,53.1592,168.7824,97.2470,262.8667,0,U,64114,999,6492,.3248478E-3,.9732E-4,0
STARLINK-34067,2025-110V,2026-07-12T08:17:45.250368,15.35690497,.00030878,53.1544,165.9371,75.9149,284.2198,0,U,64115,999,6499,.10715601E-2,.37536E-3,0
STARLINK-34080,2025-110W,2026-07-11T12:11:25.220256,15.31720221,.00011733,53.1559,170.6432,93.0524,267.0612,0,U,64116,999,6484,.59108179E-3,.18033E-3,0
STARLINK-34122,2025-110X,2026-07-12T10:13:34.538016,15.31722951,.00008518,53.1581,166.4165,162.4734,197.6297,0,U,64117,999,6498,.3492098E-3,.10494E-3,0
STARLINK-33964,2025-110Y,2026-07-12T07:46:27.783552,15.31722903,.00008835,53.1592,167.2013,92.0534,268.0568,0,U,64118,999,6497,.43352532E-3,.13121E-3,0
STARLINK-34160,2025-110Z,2026-07-12T09:06:04.014432,15.34413834,.00009017,53.1578,161.8573,97.4234,262.6871,0,U,64119,999,6505,.76792265E-3,.25669E-3,0
